[
   {
      "name": "STARLINK-1674",
      "line1": "1 46555U 20070Z   21092.84456714  .00000014  00000-0  19846-4 0  9994",
      "line2": "2 46555  53.0573 305.3892 0002107  97.5149 262.6079 15.06388118 28491",
      "bstar": 1.9846,
      "inc": 53.0573,
      "raan": 305.3892,
      "ecc": 0.0002107,
      "argp": 97.5149,
      "nu": 262.6079,
      "mmo": 15.06388118,
      "a": 6925.38498
   },
   {
      "name": "STARLINK-1676",
      "line1": "1 46556U 20070AA  21092.76441654 -.00000897  00000-0 -41286-4 0  9997",
      "line2": "2 46556  53.0581 345.7653 0002716  76.4541 283.6750 15.06394497 27914",
      "bstar": -4.1286,
      "inc": 53.0581,
      "raan": 345.7653,
      "ecc": 0.0002716,
      "argp": 76.4541,
      "nu": 283.675,
      "mmo": 15.06394497,
      "a": 6925.36542
   },
   {
      "name": "STARLINK-1679",
      "line1": "1 46557U 20070AB  21092.94088294  .00000524  00000-0  54114-4 0  9994",
      "line2": "2 46557  53.0574 329.9750 0002278  79.9340 280.1906 15.06404709 28157",
      "bstar": 5.4114,
      "inc": 53.0574,
      "raan": 329.975,
      "ecc": 0.0002278,
      "argp": 79.934,
      "nu": 280.1906,
      "mmo": 15.06404709,
      "a": 6925.33413
   },
   {
      "name": "STARLINK-1680",
      "line1": "1 46558U 20070AC  21092.94825651 -.00000108  00000-0  11665-4 0  9994",
      "line2": "2 46558  53.0584 329.9422 0001854  89.7231 270.3971 15.06394302 28129",
      "bstar": 1.1665,
      "inc": 53.0584,
      "raan": 329.9422,
      "ecc": 0.0001854,
      "argp": 89.7231,
      "nu": 270.3971,
      "mmo": 15.06394302,
      "a": 6925.36602
   },
   {
      "name": "STARLINK-1681",
      "line1": "1 46559U 20070AD  21092.87039201 -.00001114  00000-0 -55917-4 0  9992",
      "line2": "2 46559  53.0588 315.2829 0002403  93.1107 267.0157 15.06389644 28341",
      "bstar": -5.5917,
      "inc": 53.0588,
      "raan": 315.2829,
      "ecc": 0.0002403,
      "argp": 93.1107,
      "nu": 267.0157,
      "mmo": 15.06389644,
      "a": 6925.3803
   },
   {
      "name": "STARLINK-1706",
      "line1": "1 46560U 20070AE  21092.83032562  .00007730  00000-0  53736-3 0  9997",
      "line2": "2 46560  53.0580 330.4722 0001833  75.9199 284.1994 15.06391814 28139",
      "bstar": 53.736,
      "inc": 53.058,
      "raan": 330.4722,
      "ecc": 0.0001833,
      "argp": 75.9199,
      "nu": 284.1994,
      "mmo": 15.06391814,
      "a": 6925.37365
   },
   {
      "name": "STARLINK-1709",
      "line1": "1 46561U 20070AF  21092.91139257  .00001237  00000-0  10193-3 0  9992",
      "line2": "2 46561  53.0581 330.1108 0001894  81.3884 278.7319 15.06401191 28146",
      "bstar": 10.193,
      "inc": 53.0581,
      "raan": 330.1108,
      "ecc": 0.0001894,
      "argp": 81.3884,
      "nu": 278.7319,
      "mmo": 15.06401191,
      "a": 6925.34491
   },
   {
      "name": "STARLINK-1714",
      "line1": "1 46562U 20070AG  21092.91370979  .00001023  00000-0  87570-4 0  9998",
      "line2": "2 46562  53.0574 325.0983 0002079  84.2376 275.8850 15.06398237 28219",
      "bstar": 8.757,
      "inc": 53.0574,
      "raan": 325.0983,
      "ecc": 0.0002079,
      "argp": 84.2376,
      "nu": 275.885,
      "mmo": 15.06398237,
      "a": 6925.35396
   },
   {
      "name": "STARLINK-1730",
      "line1": "1 46563U 20070AH  21092.82892746 -.00000786  00000-0 -33870-4 0  9991",
      "line2": "2 46563  53.0591 325.4802 0002092  87.4472 272.6756 15.06391632 28201",
      "bstar": -3.387,
      "inc": 53.0591,
      "raan": 325.4802,
      "ecc": 0.0002092,
      "argp": 87.4472,
      "nu": 272.6756,
      "mmo": 15.06391632,
      "a": 6925.37421
   },
   {
      "name": "STARLINK-1733",
      "line1": "1 46564U 20070AJ  21092.94318641  .00000868  00000-0  77205-4 0  9991",
      "line2": "2 46564  53.0597 324.9541 0001824  78.4350 281.6844 15.06392365 28223",
      "bstar": 7.7205,
      "inc": 53.0597,
      "raan": 324.9541,
      "ecc": 0.0001824,
      "argp": 78.435,
      "nu": 281.6844,
      "mmo": 15.06392365,
      "a": 6925.37196
   },
   {
      "name": "STARLINK-1735",
      "line1": "1 46565U 20070AK  21092.92749238 -.00000985  00000-0 -47244-4 0  9992",
      "line2": "2 46565  53.0497 325.0496 0002168  80.0561 280.0673 15.06397265 28215",
      "bstar": -4.7244,
      "inc": 53.0497,
      "raan": 325.0496,
      "ecc": 0.0002168,
      "argp": 80.0561,
      "nu": 280.0673,
      "mmo": 15.06397265,
      "a": 6925.35694
   },
   {
      "name": "STARLINK-1740",
      "line1": "1 46566U 20070AL  21092.90632670  .00000775  00000-0  70911-4 0  9994",
      "line2": "2 46566  53.0578 325.1338 0002231  86.4966 273.6278 15.06404059 28211",
      "bstar": 7.0911,
      "inc": 53.0578,
      "raan": 325.1338,
      "ecc": 0.0002231,
      "argp": 86.4966,
      "nu": 273.6278,
      "mmo": 15.06404059,
      "a": 6925.33612
   },
   {
      "name": "STARLINK-1741",
      "line1": "1 46567U 20070AM  21092.93581872 -.00001044  00000-0 -51206-4 0  9993",
      "line2": "2 46567  53.0641 324.9671 0001779  82.9425 277.1767 15.06395427 28228",
      "bstar": -5.1206,
      "inc": 53.0641,
      "raan": 324.9671,
      "ecc": 0.0001779,
      "argp": 82.9425,
      "nu": 277.1767,
      "mmo": 15.06395427,
      "a": 6925.36257
   },
   {
      "name": "STARLINK-1743",
      "line1": "1 46568U 20070AN  21092.86025258 -.00000232  00000-0  33477-5 0  9995",
      "line2": "2 46568  53.0581 345.3242 0002151  76.7111 283.4118 15.06392604 27921",
      "bstar": 0.33477,
      "inc": 53.0581,
      "raan": 345.3242,
      "ecc": 0.0002151,
      "argp": 76.7111,
      "nu": 283.4118,
      "mmo": 15.06392604,
      "a": 6925.37123
   },
   {
      "name": "STARLINK-1747",
      "line1": "1 46569U 20070AP  21092.95056196 -.00000649  00000-0 -24668-4 0  9995",
      "line2": "2 46569  53.0586 324.9302 0001987  79.6539 280.4674 15.06394392 28223",
      "bstar": -2.4668,
      "inc": 53.0586,
      "raan": 324.9302,
      "ecc": 0.0001987,
      "argp": 79.6539,
      "nu": 280.4674,
      "mmo": 15.06394392,
      "a": 6925.36575
   },
   {
      "name": "STARLINK-1748",
      "line1": "1 46570U 20070AQ  21092.92475778  .00001672  00000-0  13114-3 0  9993",
      "line2": "2 46570  53.0587 325.0495 0001554  83.9790 276.1376 15.06388760 28210",
      "bstar": 13.114,
      "inc": 53.0587,
      "raan": 325.0495,
      "ecc": 0.0001554,
      "argp": 83.979,
      "nu": 276.1376,
      "mmo": 15.0638876,
      "a": 6925.38301
   },
   {
      "name": "STARLINK-1753",
      "line1": "1 46571U 20070AR  21092.82154976  .00000678  00000-0  64436-4 0  9996",
      "line2": "2 46571  53.0586 325.5058 0001952  84.1187 276.0025 15.06395493 28205",
      "bstar": 6.4436,
      "inc": 53.0586,
      "raan": 325.5058,
      "ecc": 0.0001952,
      "argp": 84.1187,
      "nu": 276.0025,
      "mmo": 15.06395493,
      "a": 6925.36237
   },
   {
      "name": "STARLINK-1531",
      "line1": "1 46572U 20070AS  21092.85656266  .00000779  00000-0  71245-4 0  9997",
      "line2": "2 46572  53.0600 345.3458 0002145  76.7755 283.3474 15.06395799 27926",
      "bstar": 7.1245,
      "inc": 53.06,
      "raan": 345.3458,
      "ecc": 0.0002145,
      "argp": 76.7755,
      "nu": 283.3474,
      "mmo": 15.06395799,
      "a": 6925.36143
   },
   {
      "name": "STARLINK-1650",
      "line1": "1 46573U 20070AT  21092.83398987  .00000822  00000-0  74106-4 0  9997",
      "line2": "2 46573  53.0591 330.4577 0001746  79.9632 280.1554 15.06392853 28134",
      "bstar": 7.4106,
      "inc": 53.0591,
      "raan": 330.4577,
      "ecc": 0.0001746,
      "argp": 79.9632,
      "nu": 280.1554,
      "mmo": 15.06392853,
      "a": 6925.37046
   },
   {
      "name": "STARLINK-1660",
      "line1": "1 46574U 20070AU  21092.95194434 -.00000746  00000-0 -31176-4 0  9999",
      "line2": "2 46574  53.0567 329.9305 0001603  87.0693 273.0480 15.06387419 28152",
      "bstar": -3.1176,
      "inc": 53.0567,
      "raan": 329.9305,
      "ecc": 0.0001603,
      "argp": 87.0693,
      "nu": 273.048,
      "mmo": 15.06387419,
      "a": 6925.38712
   },
   {
      "name": "STARLINK-1675",
      "line1": "1 46575U 20070AV  21092.87774246 -.00000526  00000-0 -16377-4 0  9998",
      "line2": "2 46575  53.0559 305.2391 0002332  86.4267 273.6989 15.06394888 28480",
      "bstar": -1.6377,
      "inc": 53.0559,
      "raan": 305.2391,
      "ecc": 0.0002332,
      "argp": 86.4267,
      "nu": 273.6989,
      "mmo": 15.06394888,
      "a": 6925.36423
   },
   {
      "name": "STARLINK-1677",
      "line1": "1 46576U 20070AW  21092.94456840  .00000462  00000-0  49893-4 0  9990",
      "line2": "2 46576  53.0590 329.9615 0001521 109.4863 250.6291 15.06403802 28157",
      "bstar": 4.9893,
      "inc": 53.059,
      "raan": 329.9615,
      "ecc": 0.0001521,
      "argp": 109.4863,
      "nu": 250.6291,
      "mmo": 15.06403802,
      "a": 6925.33691
   },
   {
      "name": "STARLINK-1682",
      "line1": "1 46577U 20070AX  21092.84136325 -.00000488  00000-0 -13869-4 0  9997",
      "line2": "2 46577  53.0574 330.4240 0001984  84.8883 275.2332 15.06392232 28133",
      "bstar": -1.3869,
      "inc": 53.0574,
      "raan": 330.424,
      "ecc": 0.0001984,
      "argp": 84.8883,
      "nu": 275.2332,
      "mmo": 15.06392232,
      "a": 6925.37237
   },
   {
      "name": "STARLINK-1683",
      "line1": "1 46578U 20070AY  21092.88419205 -.00000623  00000-0 -22923-4 0  9995",
      "line2": "2 46578  53.0651 315.1971 0002384  81.3316 278.7943 15.06398780 28353",
      "bstar": -2.2923,
      "inc": 53.0651,
      "raan": 315.1971,
      "ecc": 0.0002384,
      "argp": 81.3316,
      "nu": 278.7943,
      "mmo": 15.0639878,
      "a": 6925.3523
   }
]